{
    "links": {
        "self": "http://www.neowsapp.com/rest/v1/neo/3716456?api_key=iIulBulltgU6a56xZRHN4H3l9WmuAYTsLGpBGhQ2"
    },
    "id": "3716456",
    "neo_reference_id": "3716456",
    "name": "(2015 HN1)",
    "designation": "2015 HN1",
    "nasa_jpl_url": "http://ssd.jpl.nasa.gov/sbdb.cgi?sstr=3716456",
    "absolute_magnitude_h": 27.1,
    "estimated_diameter": {
        "kilometers": {
            "estimated_diameter_min": 0.0101054342,
            "estimated_diameter_max": 0.0225964377
        },
        "meters": {
            "estimated_diameter_min": 10.1054341542,
            "estimated_diameter_max": 22.5964377109
        },
        "miles": {
            "estimated_diameter_min": 0.0062792237,
            "estimated_diameter_max": 0.0140407711
        },
        "feet": {
            "estimated_diameter_min": 33.1543125905,
            "estimated_diameter_max": 74.1352966996
        }
    },
    "is_potentially_hazardous_asteroid": false,
    "close_approach_data": [
        {
            "close_approach_date": "2015-04-16",
            "close_approach_date_full": "2015-Apr-16 14:39",
            "epoch_date_close_approach": 1429195140000,
            "relative_velocity": {
                "kilometers_per_second": "4.3878739216",
                "kilometers_per_hour": "15796.3461178895",
                "miles_per_hour": "9815.2351753075"
            },
            "miss_distance": {
                "astronomical": "0.054681846",
                "lunar": "21.271238094",
                "kilometers": "8180287.68926802",
                "miles": "5082995.068497876"
            },
            "orbiting_body": "Earth"
        }
    ],
    "orbital_data": {
        "orbit_id": "4",
        "orbit_determination_date": "2017-04-06 08:34:19",
        "first_observation_date": "2015-04-18",
        "last_observation_date": "2015-04-20",
        "data_arc_in_days": 2,
        "observations_used": 10,
        "orbit_uncertainty": "8",
        "minimum_orbit_intersection": ".0541179",
        "jupiter_tisserand_invariant": "4.683",
        "epoch_osculation": "2457131.5",
        "eccentricity": ".2524678202259022",
        "semi_major_axis": "1.413673211105644",
        "inclination": "6.340259060328158",
        "ascending_node_longitude": "21.00610379855452",
        "orbital_period": "613.9344011196932",
        "perihelion_distance": "1.05676621698605",
        "perihelion_argument": "184.298658556106",
        "aphelion_distance": "1.770580205225237",
        "perihelion_time": "2457128.783811042409",
        "mean_anomaly": "1.592723950554648",
        "mean_motion": ".5863818664395286",
        "equinox": "J2000",
        "orbit_class": {
            "orbit_class_type": "AMO",
            "orbit_class_description": "Near-Earth asteroid orbits similar to that of 1221 Amor",
            "orbit_class_range": "1.017 AU < q (perihelion) < 1.3 AU"
        }
    },
    "is_sentry_object": false
}